ALOS (DAICHI)           
1 28931U 06002A   23338.85489729  .00002183  00000+0  41746-3 0  9990
2 28931  98.0123 291.5472 0002323  72.0562 288.0894 14.64839745952376
